STARLINK-5495           
1 55635U 23021H   26068.70642461  .00000104  00000+0  16540-4 0  9998
2 55635  70.0007 184.4286 0003592 276.1302  83.9448 14.98345366168799
COSMOS 2582             
1 62903U 25026B   26068.82119530  .00001996  00000+0  18160-3 0  9999
2 62903  81.9985 175.8563 0010584  32.7700 327.4174 14.94730838 59362
